NORAD_CAT_ID,OBJECT_NAME,OBJECT_TYPE,EPOCH,MEAN_MOTION,ECCENTRICITY,INCLINATION,RA_OF_ASC_NODE,ARG_OF_PERICENTER,MEAN_ANOMALY,BSTAR,MEAN_MOTION_DOT,MEAN_MOTION_DDOT,TLE_LINE0,TLE_LINE1,TLE_LINE2,SEMIMAJOR_AXIS,PERIOD,APOGEE,PERIGEE,DECAYED
52688.0,STARLINK-4032,PAYLOAD,2022-11-18 15:22:41,15.08840741,0.0002626,53.2166,162.7688,37.7285,322.3891,0.00024928,3.681e-05,0.0,0 STARLINK-4032,1 52688U 22053AJ  22322.64075594  .00003681  00000-0  24928-3 0  9998,2 52688  53.2166 162.7688 0002626  37.7285 322.3891 15.08840741 28893,6917.878000000002,95.438,541.56,537.9259999999998,0.0
52688.0,STARLINK-4032,PAYLOAD,2022-11-19 08:51:55,15.08849199,0.0002525,53.2163,159.4967,43.1091,317.0099,0.00029621,4.429999999999999e-05,0.0,0 STARLINK-4032,1 52688U 22053AJ  22323.36939173  .00004430  00000-0  29621-3 0  9998,2 52688  53.2163 159.4967 0002525  43.1091 317.0099 15.08849199 29008,6917.852,95.437,541.464,537.971,0.0
52688.0,STARLINK-4032,PAYLOAD,2022-11-19 13:38:04,15.08851974,0.000257,53.2162,158.6046,43.0572,317.0621,0.00027578,4.105e-05,0.0,0 STARLINK-4032,1 52688U 22053AJ  22323.56810968  .00004105  00000-0  27578-3 0  9998,2 52688  53.2162 158.6046 0002570  43.0572 317.0621 15.08851974 28665,6917.844,95.437,541.487,537.931,0.0
52688.0,STARLINK-4032,PAYLOAD,2022-11-19 19:59:36,15.08853129,0.0002565,53.2162,157.4151,43.9644,316.1551,0.00024668,3.641e-05,0.0,0 STARLINK-4032,1 52688U 22053AJ  22323.83306654  .00003641  00000-0  24668-3 0  9991,2 52688  53.2162 157.4151 0002565  43.9644 316.1551 15.08853129 29074,6917.84,95.437,541.48,537.931,0.0
52688.0,STARLINK-4032,PAYLOAD,2022-11-20 13:28:51,15.08842027,0.0002548,53.2161,154.1442,45.9556,314.1645,1.0232e-05,-1.26e-06,0.0,0 STARLINK-4032,1 52688U 22053AJ  22324.56170999 -.00000126  00000-0  10232-4 0  9992,2 52688  53.2161 154.1442 0002548  45.9556 314.1645 15.08842027 28813,6917.874,95.437,541.502,537.977,0.0
52688.0,STARLINK-4032,PAYLOAD,2022-11-20 19:50:24,15.0884157,0.0002524,53.2171,152.9545,46.0465,314.0735,4.947600000000001e-05,4.99e-06,0.0,0 STARLINK-4032,1 52688U 22053AJ  22324.82667197  .00000499  00000-0  49476-4 0  9996,2 52688  53.2171 152.9545 0002524  46.0465 314.0735 15.08841570 29226,6917.876,95.437,541.487,537.995,0.0
52688.0,STARLINK-4032,PAYLOAD,2022-11-21 11:44:15,15.0884689,0.000256,53.2171,149.9809,46.3264,313.7940000000001,2.7351e-05,1.47e-06,0.0,0 STARLINK-4032,1 52688U 22053AJ  22325.48906732  .00000147  00000-0  27351-4 0  9998,2 52688  53.2171 149.9809 0002560  46.3264 313.7940 15.08846890 29320,6917.859,95.437,541.495,537.953,0.0
52688.0,STARLINK-4032,PAYLOAD,2022-11-21 16:30:24,15.08847114,0.0002575,53.2171,149.0887,46.5348,313.5858,2.1972e-05,6.1e-07,0.0,0 STARLINK-4032,1 52688U 22053AJ  22325.68778613  .00000061  00000-0  21972-4 0  9993,2 52688  53.2171 149.0887 0002575  46.5348 313.5858 15.08847114 28985,6917.859,95.437,541.505,537.942,0.0
52688.0,STARLINK-4032,PAYLOAD,2022-11-21 21:16:34,15.08836545,0.0002562,53.2171,148.1967,44.4121,315.7077,-6.6597e-05,-1.348e-05,0.0,0 STARLINK-4032,1 52688U 22053AJ  22325.88651494 -.00001348  00000-0 -66597-4 0  9995,2 52688  53.2171 148.1967 0002562  44.4121 315.7077 15.08836545 29384,6917.891,95.438,541.528,537.984,0.0
52688.0,STARLINK-4032,PAYLOAD,2022-11-22 05:13:30,15.08831405,0.0002575,53.2172,146.71,44.0241,316.0956,8.8185e-06,-1.48e-06,0.0,0 STARLINK-4032,1 52688U 22053AJ  22326.21771726 -.00000148  00000-0  88185-5 0  9998,2 52688  53.2172 146.7100 0002575  44.0241 316.0956 15.08831405 29066,6917.906999999997,95.438,541.553,537.99,0.0
52688.0,STARLINK-4032,PAYLOAD,2022-11-22 19:31:59,15.08828685,0.000252,53.2176,144.0339,49.0556,311.0654,-1.0934e-05,-4.62e-06,0.0,0 STARLINK-4032,1 52688U 22053AJ  22326.81388344 -.00000462  00000-0 -10934-4 0  9990,2 52688  53.2176 144.0339 0002520  49.0556 311.0654 15.08828685 29526,6917.915,95.438,541.523,538.0369999999998,0.0
52688.0,STARLINK-4032,PAYLOAD,2022-11-23 11:25:50,15.08834869,0.0002565,53.2174,141.0598,46.9746,313.1461,9.3086e-06,-1.4e-06,0.0,0 STARLINK-4032,1 52688U 22053AJ  22327.47628283 -.00000140  00000-0  93086-5 0  9994,2 52688  53.2174 141.0598 0002565  46.9746 313.1461 15.08834869 29254,6917.896,95.438,541.536,537.987,0.0
52688.0,STARLINK-4032,PAYLOAD,2022-11-23 19:22:46,15.08841543,0.0002631999999999,53.2177,139.5736,46.5417,313.5793,5.902899999999999e-05,6.51e-06,0.0,0 STARLINK-4032,1 52688U 22053AJ  22327.80747780  .00000651  00000-0  59029-4 0  9999,2 52688  53.2177 139.5736 0002632  46.5417 313.5793 15.08841543 29304,6917.876,95.437,541.561,537.92,0.0
52688.0,STARLINK-4032,PAYLOAD,2022-11-24 11:16:37,15.08840999,0.0002621,53.2175,136.5998,47.1039,313.0173,0.00016311,2.309e-05,0.0,0 STARLINK-4032,1 52688U 22053AJ  22328.46987745  .00002309  00000-0  16311-3 0  9997,2 52688  53.2175 136.5998 0002621  47.1039 313.0173 15.08840999 29776,6917.877,95.437,541.556,537.929,0.0
52688.0,STARLINK-4032,PAYLOAD,2022-11-24 17:38:09,15.08843685,0.0002637,53.2175,135.4104,47.5708,312.5506,0.00017663,2.524e-05,0.0,0 STARLINK-4032,1 52688U 22053AJ  22328.73483567  .00002524  00000-0  17663-3 0  9990,2 52688  53.2175 135.4104 0002637  47.5708 312.5506 15.08843685 29811,6917.869000000002,95.437,541.558,537.91,0.0
52688.0,STARLINK-4032,PAYLOAD,2022-11-25 04:45:51,15.08845188,0.0002664,53.2175,133.3289,48.1523,311.9697,0.00016016,2.262e-05,0.0,0 STARLINK-4032,1 52688U 22053AJ  22329.19851366  .00002262  00000-0  16016-3 0  9997,2 52688  53.2175 133.3289 0002664  48.1523 311.9697 15.08845188 29515,6917.865,95.437,541.572,537.887,0.0
52688.0,STARLINK-4032,PAYLOAD,2022-11-25 17:28:57,15.08843085,0.0002663,53.2172,130.9498,48.8638,311.2584,7.1587e-05,8.51e-06,0.0,0 STARLINK-4032,1 52688U 22053AJ  22329.72843757  .00000851  00000-0  71587-4 0  9998,2 52688  53.2172 130.9498 0002663  48.8638 311.2584 15.08843085 29590,6917.871,95.437,541.578,537.894,0.0
52688.0,STARLINK-4032,PAYLOAD,2022-11-25 20:39:43,15.08843017,0.0002645,53.2176,130.3551,48.4895,311.6323,2.2275e-05,6.6e-07,0.0,0 STARLINK-4032,1 52688U 22053AJ  22329.86091846  .00000066  00000-0  22275-4 0  9995,2 52688  53.2176 130.3551 0002645  48.4895 311.6323 15.08843017 29982,6917.871,95.437,541.566,537.906,0.0
52688.0,STARLINK-4032,PAYLOAD,2022-11-26 10:58:11,15.08847535,0.0002655,53.2174,127.6793,47.3619,312.7596,3.8432e-05,3.23e-06,0.0,0 STARLINK-4032,1 52688U 22053AJ  22330.45707238  .00000323  00000-0  38432-4 0  9999,2 52688  53.2174 127.6793 0002655  47.3619 312.7596 15.08847535 30075,6917.857,95.437,541.559,537.886,0.0
52688.0,STARLINK-4032,PAYLOAD,2022-11-26 17:19:43,15.08850009,0.0002672,53.2174,126.4897,47.7289,312.3929,4.3171e-05,3.99e-06,0.0,0 STARLINK-4032,1 52688U 22053AJ  22330.72202918  .00000399  00000-0  43171-4 0  9993,2 52688  53.2174 126.4897 0002672  47.7289 312.3929 15.08850009 30114,6917.85,95.437,541.563,537.866,0.0
52688.0,STARLINK-4032,PAYLOAD,2022-11-27 10:48:58,15.08840164,0.0002682,53.2172,123.2189,48.8714,311.2509,5.0556e-05,5.16e-06,0.0,0 STARLINK-4032,1 52688U 22053AJ  22331.45067130  .00000516  00000-0  50556-4 0  9995,2 52688  53.2172 123.2189 0002682  48.8714 311.2509 15.08840164 29859,6917.88,95.438,541.6,537.89,0.0
52688.0,STARLINK-4032,PAYLOAD,2022-11-27 17:10:30,15.08838177,0.0002648,53.2172,122.0288,49.7823,310.34,3.4096e-05,2.54e-06,0.0,0 STARLINK-4032,1 52688U 22053AJ  22331.71563314  .00000254  00000-0  34096-4 0  9999,2 52688  53.2172 122.0288 0002648  49.7823 310.3400 15.08838177 30267,6917.886,95.438,541.5830000000002,537.919,0.0
52688.0,STARLINK-4032,PAYLOAD,2022-11-28 17:01:17,15.08845831,0.0002664,53.2174,117.5685,51.4983,308.6248,2.4926e-05,1.08e-06,0.0,0 STARLINK-4032,1 52688U 22053AJ  22332.70922751  .00000108  00000-0  24926-4 0  9992,2 52688  53.2174 117.5685 0002664  51.4983 308.6248 15.08845831 30045,6917.863,95.437,541.57,537.885,0.0
52688.0,STARLINK-4032,PAYLOAD,2022-11-29 08:55:09,15.08782097,0.0002912,53.218,114.5944,50.4783,309.6466,0.00073144,0.00011354,0.0,0 STARLINK-4032,1 52688U 22053AJ  22333.37164116  .00011354  00000-0  73144-3 0  9999,2 52688  53.2180 114.5944 0002912  50.4783 309.6466 15.08782097 30148,6918.057,95.441,541.937,537.908,0.0
52688.0,STARLINK-4032,PAYLOAD,2022-11-29 20:02:51,15.08835349,0.0002693,53.2186,112.5141,54.3221,305.8022,8.6288e-05,1.085e-05,0.0,0 STARLINK-4032,1 52688U 22053AJ  22333.83531615  .00001085  00000-0  86288-4 0  9996,2 52688  53.2186 112.5141 0002693  54.3221 305.8022 15.08835349 30210,6917.895,95.438,541.623,537.8969999999998,0.0
52688.0,STARLINK-4032,PAYLOAD,2022-11-30 10:21:20,15.08828982,0.0002624,53.2189,109.8377,54.5012,305.6225,4.3315e-05,4.01e-06,0.0,0 STARLINK-4032,1 52688U 22053AJ  22334.43148244  .00000401  00000-0  43315-4 0  9990,2 52688  53.2189 109.8377 0002624  54.5012 305.6225 15.08828982 30305,6917.9140000000025,95.438,541.594,537.964,0.0
52688.0,STARLINK-4032,PAYLOAD,2022-11-30 18:18:15,15.08835283,0.0002768999999999,53.2182,108.3503,49.0382,311.0849,7.410899999999999e-05,8.91e-06,0.0,0 STARLINK-4032,1 52688U 22053AJ  22334.76267998  .00000891  00000-0  74109-4 0  9992,2 52688  53.2182 108.3503 0002769  49.0382 311.0849 15.08835283 30723,6917.895,95.438,541.675,537.844,0.0
52688.0,STARLINK-4032,PAYLOAD,2022-12-01 02:15:11,15.08837249,0.0002678,53.2188,106.8638,50.2176,309.9052,7.3446e-05,8.81e-06,0.0,0 STARLINK-4032,1 52688U 22053AJ  22335.09387944  .00000881  00000-0  73446-4 0  9995,2 52688  53.2188 106.8638 0002678  50.2176 309.9052 15.08837249 30406,6917.889,95.438,541.606,537.901,0.0
52688.0,STARLINK-4032,PAYLOAD,2022-12-01 08:36:43,15.08842134,0.0002595,53.2187,105.6742,50.3736,309.7485,5.4225e-05,5.75e-06,0.0,0 STARLINK-4032,1 52688U 22053AJ  22335.35883758  .00000575  00000-0  54225-4 0  9992,2 52688  53.2187 105.6742 0002595  50.3736 309.7485 15.08842134 30811,6917.874,95.437,541.534,537.944,0.0
